[{"OBJECT_NAME":"ONEWEB-0572","OBJECT_ID":"2023-004M","EPOCH":"2026-06-26T11:30:55.140768","MEAN_MOTION":13.17649035,"ECCENTRICITY":0.0002026,"INCLINATION":87.9131,"RA_OF_ASC_NODE":4.0165,"ARG_OF_PERICENTER":93.5622,"MEAN_ANOMALY":266.5741,"EPHEMERIS_TYPE":0,"CLASSIFICATION_TYPE":"U","NORAD_CAT_ID":55151,"ELEMENT_SET_NO":999,"REV_AT_EPOCH":16870,"BSTAR":5.4308e-5,"MEAN_MOTION_DOT":3.4e-7,"MEAN_MOTION_DDOT":0},{"OBJECT_NAME":"ONEWEB-0573","OBJECT_ID":"2023-004N","EPOCH":"2026-06-26T16:12:35.387712","MEAN_MOTION":13.18687527,"ECCENTRICITY":0.0002539,"INCLINATION":87.9169,"RA_OF_ASC_NODE":333.5809,"ARG_OF_PERICENTER":109.8484,"MEAN_ANOMALY":250.2922,"EPHEMERIS_TYPE":0,"CLASSIFICATION_TYPE":"U","NORAD_CAT_ID":55152,"ELEMENT_SET_NO":999,"REV_AT_EPOCH":17094,"BSTAR":0.00012341,"MEAN_MOTION_DOT":6.2e-7,"MEAN_MOTION_DDOT":0},{"OBJECT_NAME":"ONEWEB-0588","OBJECT_ID":"2023-004P","EPOCH":"2026-06-26T16:02:53.253024","MEAN_MOTION":13.18686303,"ECCENTRICITY":0.0002378,"INCLINATION":87.9166,"RA_OF_ASC_NODE":333.5823,"ARG_OF_PERICENTER":92.4972,"MEAN_ANOMALY":267.6432,"EPHEMERIS_TYPE":0,"CLASSIFICATION_TYPE":"U","NORAD_CAT_ID":55153,"ELEMENT_SET_NO":999,"REV_AT_EPOCH":17094,"BSTAR":0.00029703,"MEAN_MOTION_DOT":1.3e-6,"MEAN_MOTION_DDOT":0},{"OBJECT_NAME":"ONEWEB-0598","OBJECT_ID":"2023-004Q","EPOCH":"2026-06-26T13:04:28.096032","MEAN_MOTION":13.11416467,"ECCENTRICITY":0.0002046,"INCLINATION":87.888,"RA_OF_ASC_NODE":19.2053,"ARG_OF_PERICENTER":108.0675,"MEAN_ANOMALY":252.0676,"EPHEMERIS_TYPE":0,"CLASSIFICATION_TYPE":"U","NORAD_CAT_ID":55154,"ELEMENT_SET_NO":999,"REV_AT_EPOCH":16712,"BSTAR":0.0013074,"MEAN_MOTION_DOT":4.76e-6,"MEAN_MOTION_DDOT":0},{"OBJECT_NAME":"ONEWEB-0599","OBJECT_ID":"2023-004R","EPOCH":"2026-06-26T17:52:25.442688","MEAN_MOTION":13.1764988,"ECCENTRICITY":0.0001691,"INCLINATION":87.9132,"RA_OF_ASC_NODE":3.9623,"ARG_OF_PERICENTER":94.4681,"MEAN_ANOMALY":265.6643,"EPHEMERIS_TYPE":0,"CLASSIFICATION_TYPE":"U","NORAD_CAT_ID":55155,"ELEMENT_SET_NO":999,"REV_AT_EPOCH":16874,"BSTAR":0.00023904,"MEAN_MOTION_DOT":1.06e-6,"MEAN_MOTION_DDOT":0},{"OBJECT_NAME":"ONEWEB-0614","OBJECT_ID":"2023-004S","EPOCH":"2026-06-26T12:57:08.201664","MEAN_MOTION":13.11417594,"ECCENTRICITY":0.0001983,"INCLINATION":87.8879,"RA_OF_ASC_NODE":19.2151,"ARG_OF_PERICENTER":81.6417,"MEAN_ANOMALY":278.4936,"EPHEMERIS_TYPE":0,"CLASSIFICATION_TYPE":"U","NORAD_CAT_ID":55156,"ELEMENT_SET_NO":999,"REV_AT_EPOCH":16706,"BSTAR":0.00097683,"MEAN_MOTION_DOT":3.59e-6,"MEAN_MOTION_DDOT":0},{"OBJECT_NAME":"ONEWEB-0616","OBJECT_ID":"2023-004T","EPOCH":"2026-06-26T11:35:47.102784","MEAN_MOTION":13.17649397,"ECCENTRICITY":9.87e-5,"INCLINATION":87.9132,"RA_OF_ASC_NODE":4.0181,"ARG_OF_PERICENTER":103.7538,"MEAN_ANOMALY":256.3703,"EPHEMERIS_TYPE":0,"CLASSIFICATION_TYPE":"U","NORAD_CAT_ID":55157,"ELEMENT_SET_NO":999,"REV_AT_EPOCH":16892,"BSTAR":0.00016322,"MEAN_MOTION_DOT":7.6e-7,"MEAN_MOTION_DDOT":0},{"OBJECT_NAME":"ONEWEB-0617","OBJECT_ID":"2023-004U","EPOCH":"2026-06-26T10:50:10.716288","MEAN_MOTION":13.11418899,"ECCENTRICITY":0.0002175,"INCLINATION":87.8885,"RA_OF_ASC_NODE":19.2237,"ARG_OF_PERICENTER":83.4734,"MEAN_ANOMALY":276.6641,"EPHEMERIS_TYPE":0,"CLASSIFICATION_TYPE":"U","NORAD_CAT_ID":55158,"ELEMENT_SET_NO":999,"REV_AT_EPOCH":16707,"BSTAR":-0.00019134,"MEAN_MOTION_DOT":-5.5e-7,"MEAN_MOTION_DDOT":0},{"OBJECT_NAME":"ONEWEB-0618","OBJECT_ID":"2023-004V","EPOCH":"2026-06-26T17:07:59.930976","MEAN_MOTION":15.13211678,"ECCENTRICITY":0.000945,"INCLINATION":86.9094,"RA_OF_ASC_NODE":173.7666,"ARG_OF_PERICENTER":253.7768,"MEAN_ANOMALY":106.2432,"EPHEMERIS_TYPE":0,"CLASSIFICATION_TYPE":"U","NORAD_CAT_ID":55159,"ELEMENT_SET_NO":999,"REV_AT_EPOCH":18370,"BSTAR":0.00024425,"MEAN_MOTION_DOT":4.371e-5,"MEAN_MOTION_DDOT":0},{"OBJECT_NAME":"ONEWEB-0619","OBJECT_ID":"2023-004W","EPOCH":"2026-06-26T17:50:00.058272","MEAN_MOTION":13.17649319,"ECCENTRICITY":0.0001745,"INCLINATION":87.9143,"RA_OF_ASC_NODE":3.9481,"ARG_OF_PERICENTER":77.4732,"MEAN_ANOMALY":282.6594,"EPHEMERIS_TYPE":0,"CLASSIFICATION_TYPE":"U","NORAD_CAT_ID":55160,"ELEMENT_SET_NO":999,"REV_AT_EPOCH":16885,"BSTAR":1.9394e-5,"MEAN_MOTION_DOT":2.0e-7,"MEAN_MOTION_DDOT":0},{"OBJECT_NAME":"ONEWEB-0620","OBJECT_ID":"2023-004X","EPOCH":"2026-06-26T07:03:06.266592","MEAN_MOTION":13.11417503,"ECCENTRICITY":0.0002011,"INCLINATION":87.8882,"RA_OF_ASC_NODE":19.2639,"ARG_OF_PERICENTER":93.3937,"MEAN_ANOMALY":266.7421,"EPHEMERIS_TYPE":0,"CLASSIFICATION_TYPE":"U","NORAD_CAT_ID":55161,"ELEMENT_SET_NO":999,"REV_AT_EPOCH":16702,"BSTAR":-0.00076231,"MEAN_MOTION_DOT":-2.57e-6,"MEAN_MOTION_DDOT":0},{"OBJECT_NAME":"ONEWEB-0621","OBJECT_ID":"2023-004Y","EPOCH":"2026-06-26T13:11:47.383008","MEAN_MOTION":13.11415916,"ECCENTRICITY":0.000194,"INCLINATION":87.889,"RA_OF_ASC_NODE":19.2024,"ARG_OF_PERICENTER":80.9176,"MEAN_ANOMALY":279.2171,"EPHEMERIS_TYPE":0,"CLASSIFICATION_TYPE":"U","NORAD_CAT_ID":55162,"ELEMENT_SET_NO":999,"REV_AT_EPOCH":16703,"BSTAR":0.0014811,"MEAN_MOTION_DOT":5.38e-6,"MEAN_MOTION_DDOT":0},{"OBJECT_NAME":"ONEWEB-0622","OBJECT_ID":"2023-004Z","EPOCH":"2026-06-26T13:19:07.076064","MEAN_MOTION":13.11415114,"ECCENTRICITY":0.0002546,"INCLINATION":87.8891,"RA_OF_ASC_NODE":19.2039,"ARG_OF_PERICENTER":82.7014,"MEAN_ANOMALY":277.4404,"EPHEMERIS_TYPE":0,"CLASSIFICATION_TYPE":"U","NORAD_CAT_ID":55163,"ELEMENT_SET_NO":999,"REV_AT_EPOCH":16702,"BSTAR":0.0013317,"MEAN_MOTION_DOT":4.85e-6,"MEAN_MOTION_DDOT":0},{"OBJECT_NAME":"ONEWEB-0623","OBJECT_ID":"2023-004AA","EPOCH":"2026-06-26T10:25:17.878080","MEAN_MOTION":13.17649955,"ECCENTRICITY":0.0002313,"INCLINATION":87.913,"RA_OF_ASC_NODE":4.0385,"ARG_OF_PERICENTER":71.9448,"MEAN_ANOMALY":288.1936,"EPHEMERIS_TYPE":0,"CLASSIFICATION_TYPE":"U","NORAD_CAT_ID":55164,"ELEMENT_SET_NO":999,"REV_AT_EPOCH":16880,"BSTAR":0.00013194,"MEAN_MOTION_DOT":6.4e-7,"MEAN_MOTION_DDOT":0},{"OBJECT_NAME":"ONEWEB-0624","OBJECT_ID":"2023-004AB","EPOCH":"2026-06-26T17:18:15.727104","MEAN_MOTION":13.12927728,"ECCENTRICITY":0.0001857,"INCLINATION":87.8949,"RA_OF_ASC_NODE":348.6871,"ARG_OF_PERICENTER":88.5813,"MEAN_ANOMALY":271.5528,"EPHEMERIS_TYPE":0,"CLASSIFICATION_TYPE":"U","NORAD_CAT_ID":55165,"ELEMENT_SET_NO":999,"REV_AT_EPOCH":16932,"BSTAR":-0.00056922,"MEAN_MOTION_DOT":-1.93e-6,"MEAN_MOTION_DDOT":0},{"OBJECT_NAME":"ONEWEB-0625","OBJECT_ID":"2023-004AC","EPOCH":"2026-06-26T12:00:05.133888","MEAN_MOTION":13.17649546,"ECCENTRICITY":0.0001678,"INCLINATION":87.9133,"RA_OF_ASC_NODE":4.0213,"ARG_OF_PERICENTER":89.1587,"MEAN_ANOMALY":270.9737,"EPHEMERIS_TYPE":0,"CLASSIFICATION_TYPE":"U","NORAD_CAT_ID":55166,"ELEMENT_SET_NO":999,"REV_AT_EPOCH":16880,"BSTAR":8.3326e-5,"MEAN_MOTION_DOT":4.5e-7,"MEAN_MOTION_DDOT":0},{"OBJECT_NAME":"ONEWEB-0626","OBJECT_ID":"2023-004AD","EPOCH":"2026-06-26T11:45:29.134656","MEAN_MOTION":13.17657023,"ECCENTRICITY":0.0002106,"INCLINATION":87.9131,"RA_OF_ASC_NODE":4.0229,"ARG_OF_PERICENTER":100.1882,"MEAN_ANOMALY":259.9488,"EPHEMERIS_TYPE":0,"CLASSIFICATION_TYPE":"U","NORAD_CAT_ID":55167,"ELEMENT_SET_NO":999,"REV_AT_EPOCH":16880,"BSTAR":4.8746e-5,"MEAN_MOTION_DOT":3.2e-7,"MEAN_MOTION_DDOT":0}]
